[{"OBJECT_NAME":"ONEWEB-0058","OBJECT_ID":"2020-008AG","EPOCH":"2026-02-07T02:20:21.867648","MEAN_MOTION":13.10373232,"ECCENTRICITY":0.00016517,"INCLINATION":87.8753,"RA_OF_ASC_NODE":62.2031,"ARG_OF_PERICENTER":90.6221,"MEAN_ANOMALY":269.5096,"EPHEMERIS_TYPE":0,"CLASSIFICATION_TYPE":"U","NORAD_CAT_ID":45161,"ELEMENT_SET_NO":999,"REV_AT_EPOCH":29138,"BSTAR":-0.0015629274,"MEAN_MOTION_DOT":-5.33e-6,"MEAN_MOTION_DDOT":0},{"OBJECT_NAME":"ONEWEB-0059","OBJECT_ID":"2020-008AH","EPOCH":"2026-02-07T02:15:23.035104","MEAN_MOTION":13.10372678,"ECCENTRICITY":0.00017009,"INCLINATION":87.8758,"RA_OF_ASC_NODE":62.2053,"ARG_OF_PERICENTER":91.4664,"MEAN_ANOMALY":268.6658,"EPHEMERIS_TYPE":0,"CLASSIFICATION_TYPE":"U","NORAD_CAT_ID":45162,"ELEMENT_SET_NO":999,"REV_AT_EPOCH":29128,"BSTAR":-0.0016798905,"MEAN_MOTION_DOT":-5.74e-6,"MEAN_MOTION_DDOT":0},{"OBJECT_NAME":"ONEWEB-0062","OBJECT_ID":"2020-008AJ","EPOCH":"2026-02-07T02:52:28.647264","MEAN_MOTION":13.10375082,"ECCENTRICITY":0.00016485,"INCLINATION":87.8766,"RA_OF_ASC_NODE":62.1786,"ARG_OF_PERICENTER":105.8751,"MEAN_ANOMALY":254.2559,"EPHEMERIS_TYPE":0,"CLASSIFICATION_TYPE":"U","NORAD_CAT_ID":45163,"ELEMENT_SET_NO":999,"REV_AT_EPOCH":29115,"BSTAR":0.0012492496,"MEAN_MOTION_DOT":4.49e-6,"MEAN_MOTION_DDOT":0},{"OBJECT_NAME":"ONEWEB-0065","OBJECT_ID":"2020-008AK","EPOCH":"2026-02-07T01:46:31.563552","MEAN_MOTION":13.10369783,"ECCENTRICITY":0.00021215,"INCLINATION":87.8751,"RA_OF_ASC_NODE":62.1996,"ARG_OF_PERICENTER":81.4384,"MEAN_ANOMALY":278.6984,"EPHEMERIS_TYPE":0,"CLASSIFICATION_TYPE":"U","NORAD_CAT_ID":45164,"ELEMENT_SET_NO":999,"REV_AT_EPOCH":29084,"BSTAR":-0.0005860622,"MEAN_MOTION_DOT":-1.92e-6,"MEAN_MOTION_DDOT":0},{"OBJECT_NAME":"ONEWEB-0066","OBJECT_ID":"2020-020A","EPOCH":"2026-02-07T01:27:24.486912","MEAN_MOTION":13.1141811,"ECCENTRICITY":0.0001676,"INCLINATION":87.8827,"RA_OF_ASC_NODE":46.956,"ARG_OF_PERICENTER":87.5065,"MEAN_ANOMALY":272.6254,"EPHEMERIS_TYPE":0,"CLASSIFICATION_TYPE":"U","NORAD_CAT_ID":45424,"ELEMENT_SET_NO":999,"REV_AT_EPOCH":28562,"BSTAR":-0.0008503399,"MEAN_MOTION_DOT":-2.89e-6,"MEAN_MOTION_DDOT":0},{"OBJECT_NAME":"ONEWEB-0067","OBJECT_ID":"2020-020B","EPOCH":"2026-02-07T00:31:28.279776","MEAN_MOTION":13.11415091,"ECCENTRICITY":0.00018669,"INCLINATION":87.8835,"RA_OF_ASC_NODE":46.8707,"ARG_OF_PERICENTER":83.8906,"MEAN_ANOMALY":276.2435,"EPHEMERIS_TYPE":0,"CLASSIFICATION_TYPE":"U","NORAD_CAT_ID":45425,"ELEMENT_SET_NO":999,"REV_AT_EPOCH":28567,"BSTAR":0.00069648417,"MEAN_MOTION_DOT":2.6e-6,"MEAN_MOTION_DDOT":0},{"OBJECT_NAME":"ONEWEB-0080","OBJECT_ID":"2020-020C","EPOCH":"2026-02-07T00:44:43.247904","MEAN_MOTION":13.11416666,"ECCENTRICITY":0.00017136,"INCLINATION":87.882,"RA_OF_ASC_NODE":46.9606,"ARG_OF_PERICENTER":100.996,"MEAN_ANOMALY":259.136,"EPHEMERIS_TYPE":0,"CLASSIFICATION_TYPE":"U","NORAD_CAT_ID":45426,"ELEMENT_SET_NO":999,"REV_AT_EPOCH":28564,"BSTAR":-0.00042951629,"MEAN_MOTION_DOT":-1.4e-6,"MEAN_MOTION_DDOT":0},{"OBJECT_NAME":"ONEWEB-0090","OBJECT_ID":"2020-020D","EPOCH":"2026-02-07T01:12:57.341088","MEAN_MOTION":13.11417836,"ECCENTRICITY":0.00017815,"INCLINATION":87.8825,"RA_OF_ASC_NODE":46.9585,"ARG_OF_PERICENTER":91.6575,"MEAN_ANOMALY":268.4757,"EPHEMERIS_TYPE":0,"CLASSIFICATION_TYPE":"U","NORAD_CAT_ID":45427,"ELEMENT_SET_NO":999,"REV_AT_EPOCH":28561,"BSTAR":-0.0017289512,"MEAN_MOTION_DOT":-6.0e-6,"MEAN_MOTION_DDOT":0},{"OBJECT_NAME":"ONEWEB-0061","OBJECT_ID":"2020-020E","EPOCH":"2026-02-07T01:58:58.102752","MEAN_MOTION":13.11415732,"ECCENTRICITY":0.00018095,"INCLINATION":87.8826,"RA_OF_ASC_NODE":46.9362,"ARG_OF_PERICENTER":89.6589,"MEAN_ANOMALY":270.4747,"EPHEMERIS_TYPE":0,"CLASSIFICATION_TYPE":"U","NORAD_CAT_ID":45428,"ELEMENT_SET_NO":999,"REV_AT_EPOCH":28557,"BSTAR":0.00151292,"MEAN_MOTION_DOT":5.49e-6,"MEAN_MOTION_DDOT":0},{"OBJECT_NAME":"ONEWEB-0081","OBJECT_ID":"2020-020F","EPOCH":"2026-02-06T23:42:25.321248","MEAN_MOTION":13.11419349,"ECCENTRICITY":0.0001715,"INCLINATION":87.8828,"RA_OF_ASC_NODE":46.9695,"ARG_OF_PERICENTER":82.976,"MEAN_ANOMALY":277.1563,"EPHEMERIS_TYPE":0,"CLASSIFICATION_TYPE":"U","NORAD_CAT_ID":45429,"ELEMENT_SET_NO":999,"REV_AT_EPOCH":28567,"BSTAR":-0.00012076,"MEAN_MOTION_DOT":-3.0e-7,"MEAN_MOTION_DDOT":0},{"OBJECT_NAME":"ONEWEB-0069","OBJECT_ID":"2020-020G","EPOCH":"2026-02-07T01:16:25.202208","MEAN_MOTION":13.11416584,"ECCENTRICITY":0.00017889,"INCLINATION":87.8827,"RA_OF_ASC_NODE":46.9532,"ARG_OF_PERICENTER":87.9468,"MEAN_ANOMALY":272.1865,"EPHEMERIS_TYPE":0,"CLASSIFICATION_TYPE":"U","NORAD_CAT_ID":45430,"ELEMENT_SET_NO":999,"REV_AT_EPOCH":28561,"BSTAR":-0.001528877,"MEAN_MOTION_DOT":-5.29e-6,"MEAN_MOTION_DDOT":0},{"OBJECT_NAME":"ONEWEB-0031","OBJECT_ID":"2020-020H","EPOCH":"2026-02-07T02:26:00.632544","MEAN_MOTION":13.11413536,"ECCENTRICITY":0.00017846,"INCLINATION":87.8815,"RA_OF_ASC_NODE":46.9633,"ARG_OF_PERICENTER":96.1747,"MEAN_ANOMALY":263.9585,"EPHEMERIS_TYPE":0,"CLASSIFICATION_TYPE":"U","NORAD_CAT_ID":45431,"ELEMENT_SET_NO":999,"REV_AT_EPOCH":28560,"BSTAR":0.0001787378,"MEAN_MOTION_DOT":7.6e-7,"MEAN_MOTION_DDOT":0},{"OBJECT_NAME":"ONEWEB-0027","OBJECT_ID":"2020-020J","EPOCH":"2026-02-06T23:59:08.499552","MEAN_MOTION":13.17650581,"ECCENTRICITY":0.00021052,"INCLINATION":87.9107,"RA_OF_ASC_NODE":31.7039,"ARG_OF_PERICENTER":97.2249,"MEAN_ANOMALY":262.9121,"EPHEMERIS_TYPE":0,"CLASSIFICATION_TYPE":"U","NORAD_CAT_ID":45432,"ELEMENT_SET_NO":999,"REV_AT_EPOCH":28921,"BSTAR":-7.6899428e-5,"MEAN_MOTION_DOT":-1.7e-7,"MEAN_MOTION_DDOT":0},{"OBJECT_NAME":"ONEWEB-0064","OBJECT_ID":"2020-020K","EPOCH":"2026-02-07T00:33:42.033888","MEAN_MOTION":13.1141467,"ECCENTRICITY":0.00018581,"INCLINATION":87.8818,"RA_OF_ASC_NODE":46.9693,"ARG_OF_PERICENTER":95.6896,"MEAN_ANOMALY":264.4444,"EPHEMERIS_TYPE":0,"CLASSIFICATION_TYPE":"U","NORAD_CAT_ID":45433,"ELEMENT_SET_NO":999,"REV_AT_EPOCH":28562,"BSTAR":0.00057269144,"MEAN_MOTION_DOT":2.16e-6,"MEAN_MOTION_DDOT":0},{"OBJECT_NAME":"ONEWEB-0018","OBJECT_ID":"2020-020L","EPOCH":"2026-02-07T01:20:04.030080","MEAN_MOTION":13.11417765,"ECCENTRICITY":0.00016702,"INCLINATION":87.8827,"RA_OF_ASC_NODE":46.957,"ARG_OF_PERICENTER":89.5707,"MEAN_ANOMALY":270.5612,"EPHEMERIS_TYPE":0,"CLASSIFICATION_TYPE":"U","NORAD_CAT_ID":45434,"ELEMENT_SET_NO":999,"REV_AT_EPOCH":28557,"BSTAR":-0.0017185698,"MEAN_MOTION_DOT":-5.96e-6,"MEAN_MOTION_DDOT":0},{"OBJECT_NAME":"ONEWEB-0083","OBJECT_ID":"2020-020M","EPOCH":"2026-02-07T01:06:39.523392","MEAN_MOTION":13.11417357,"ECCENTRICITY":0.00018081,"INCLINATION":87.8823,"RA_OF_ASC_NODE":46.9467,"ARG_OF_PERICENTER":92.4198,"MEAN_ANOMALY":267.7137,"EPHEMERIS_TYPE":0,"CLASSIFICATION_TYPE":"U","NORAD_CAT_ID":45435,"ELEMENT_SET_NO":999,"REV_AT_EPOCH":28561,"BSTAR":-0.001477047,"MEAN_MOTION_DOT":-5.11e-6,"MEAN_MOTION_DDOT":0},{"OBJECT_NAME":"ONEWEB-0095","OBJECT_ID":"2020-020N","EPOCH":"2026-02-07T00:53:25.707840","MEAN_MOTION":13.11414513,"ECCENTRICITY":0.00025803,"INCLINATION":87.8823,"RA_OF_ASC_NODE":46.9584,"ARG_OF_PERICENTER":90.4052,"MEAN_ANOMALY":269.7372,"EPHEMERIS_TYPE":0,"CLASSIFICATION_TYPE":"U","NORAD_CAT_ID":45436,"ELEMENT_SET_NO":999,"REV_AT_EPOCH":28561,"BSTAR":-0.0011645583,"MEAN_MOTION_DOT":-4.0e-6,"MEAN_MOTION_DDOT":0}]
