ONEWEB-0058             
1 45161U 20008AG  26038.09747532 -.00000533  00000+0 -15629-2 0  9990
2 45161  87.8753  62.2031 0001651  90.6221 269.5096 13.10373232291389
ONEWEB-0059             
1 45162U 20008AH  26038.09401661 -.00000574  00000+0 -16799-2 0  9995
2 45162  87.8758  62.2053 0001700  91.4664 268.6658 13.10372678291280
ONEWEB-0062             
1 45163U 20008AJ  26038.11977601  .00000449  00000+0  12492-2 0  9996
2 45163  87.8766  62.1786 0001648 105.8751 254.2559 13.10375082291159
ONEWEB-0065             
1 45164U 20008AK  26038.07397643 -.00000192  00000+0 -58606-3 0  9999
2 45164  87.8751  62.1996 0002121  81.4384 278.6984 13.10369783290843
ONEWEB-0066             
1 45424U 20020A   26038.06070008 -.00000289  00000+0 -85034-3 0  9996
2 45424  87.8827  46.9560 0001676  87.5065 272.6254 13.11418110285624
ONEWEB-0067             
1 45425U 20020B   26038.02185509  .00000260  00000+0  69648-3 0  9996
2 45425  87.8835  46.8707 0001866  83.8906 276.2435 13.11415091285671
ONEWEB-0080             
1 45426U 20020C   26038.03105611 -.00000140  00000+0 -42952-3 0  9992
2 45426  87.8820  46.9606 0001713 100.9960 259.1360 13.11416666285640
ONEWEB-0090             
1 45427U 20020D   26038.05066367 -.00000600  00000+0 -17290-2 0  9996
2 45427  87.8825  46.9585 0001781  91.6575 268.4757 13.11417836285615
ONEWEB-0061             
1 45428U 20020E   26038.08261693  .00000549  00000+0  15129-2 0  9998
2 45428  87.8826  46.9362 0001809  89.6589 270.4747 13.11415732285573
ONEWEB-0081             
1 45429U 20020F   26037.98779307 -.00000030  00000+0 -12076-3 0  9999
2 45429  87.8828  46.9695 0001715  82.9760 277.1563 13.11419349285677
ONEWEB-0069             
1 45430U 20020G   26038.05306947 -.00000529  00000+0 -15289-2 0  9997
2 45430  87.8827  46.9532 0001788  87.9468 272.1865 13.11416584285610
ONEWEB-0031             
1 45431U 20020H   26038.10139621  .00000076  00000+0  17874-3 0  9995
2 45431  87.8815  46.9633 0001784  96.1747 263.9585 13.11413536285608
ONEWEB-0027             
1 45432U 20020J   26037.99940393 -.00000017  00000+0 -76899-4 0  9998
2 45432  87.9107  31.7039 0002105  97.2249 262.9121 13.17650581289218
ONEWEB-0064             
1 45433U 20020K   26038.02340317  .00000216  00000+0  57269-3 0  9992
2 45433  87.8818  46.9693 0001858  95.6896 264.4444 13.11414670285622
ONEWEB-0018             
1 45434U 20020L   26038.05560220 -.00000596  00000+0 -17186-2 0  9999
2 45434  87.8827  46.9570 0001670  89.5707 270.5612 13.11417765285579
ONEWEB-0083             
1 45435U 20020M   26038.04629078 -.00000511  00000+0 -14770-2 0  9999
2 45435  87.8823  46.9467 0001808  92.4198 267.7137 13.11417357285613
ONEWEB-0095             
1 45436U 20020N   26038.03710310 -.00000400  00000+0 -11646-2 0  9995
2 45436  87.8823  46.9584 0002580  90.4052 269.7372 13.11414513285613
